{"fetched_at":"2026-03-30T06:02:59Z","count":15439,"tles":[{"name":"STARLINK-11323 [DTC]","line1":"1 61533U 24184B   26087.44636334  .00002497  00000+0  25460-4 0  9995","line2":"2 61533  53.1577 143.7741 0001103  64.2053 295.9079 15.69713391 83366","category":"Starlink"}]}