{
  "norad_id": 61533,
  "name": "STARLINK-11323 [DTC]",
  "history": [
    {
      "epoch": "2026-03-28T10:42:45.792576Z",
      "apogee_km": 360.4608384014691,
      "perigee_km": 358.9732549850414,
      "latitude_deg": 2.827625845717559e-05,
      "longitude_deg": 157.21662713375886,
      "height_km": 360.3069397738203,
      "semi_major_axis_km": 6737.854046693255,
      "eccentricity": 0.00011039,
      "inclination_deg": 53.1577,
      "raan_deg": 143.7741,
      "arg_perigee_deg": 64.2053,
      "mean_anomaly_deg": 295.9079,
      "mean_motion_rev_day": 15.69713391
    }
  ]
}